{
  "type": "FeatureCollection",
  "name": "Kilimani_Ward_Nairobi",
  "crs": {
    "type": "name",
    "properties": {
      "name": "urn:ogc:def:crs:OGC:1.3:CRS84"
    }
  },
  "features": [
    {
      "type": "Feature",
      "properties": {
        "ward_name": "Kilimani",
        "sub_county": "Dagoretti North",
        "county": "Nairobi",
        "country": "Kenya",
        "admin_level": 4,
        "area_km2": 16.1
      },
      "geometry": {
        "type": "Polygon",
        "coordinates": [
          [
            [36.7621, -1.2825],
            [36.7854, -1.2783],
            [36.8021, -1.2892],
            [36.8055, -1.3045],
            [36.7942, -1.3156],
            [36.7725, -1.3121],
            [36.7602, -1.2988],
            [36.7621, -1.2825]
          ]
        ]
      }
    }
  ]
}
